[
    {
        "Altitude(m)": 557154.2102825573,
        "Argument of Periapsis(deg)": 0.033114955553567506,
        "Eccentricity": 0.0,
        "Inclination(deg)": 53.0,
        "Latitude(deg)": 40.96778467371452,
        "Longitude(deg)": -104.58448915599313,
        "Mean Anomaly(deg)": 125.00346433788792,
        "RAAN(deg)": 219.9507168426401,
        "Satellite Name": "Starlink Shell 1 972",
        "Satellite Number": 972,
        "Semi-Major Axis(m)": 6931778.249405717,
        "Time(s)": 950
    },
    {
        "Altitude(m)": 557071.9087774536,
        "Argument of Periapsis(deg)": 0.03346353403307874,
        "Eccentricity": 0.0,
        "Inclination(deg)": 53.0,
        "Latitude(deg)": 40.584819117449776,
        "Longitude(deg)": -103.97084317179464,
        "Mean Anomaly(deg)": 125.63029554144464,
        "RAAN(deg)": 219.95019807256264,
        "Satellite Name": "Starlink Shell 1 972",
        "Satellite Number": 972,
        "Semi-Major Axis(m)": 6931778.249405717,
        "Time(s)": 960
    },
    {
        "Altitude(m)": 556989.2923387344,
        "Argument of Periapsis(deg)": 0.03381211251258998,
        "Eccentricity": 0.0,
        "Inclination(deg)": 53.0,
        "Latitude(deg)": 40.19815697424814,
        "Longitude(deg)": -103.36465396947237,
        "Mean Anomaly(deg)": 126.25712674500136,
        "RAAN(deg)": 219.94967930248515,
        "Satellite Name": "Starlink Shell 1 972",
        "Satellite Number": 972,
        "Semi-Major Axis(m)": 6931778.249405717,
        "Time(s)": 970
    },
    {
        "Altitude(m)": 556906.4143991115,
        "Argument of Periapsis(deg)": 0.034160690992101214,
        "Eccentricity": 0.0,
        "Inclination(deg)": 53.0,
        "Latitude(deg)": 39.807888395710584,
        "Longitude(deg)": -102.765805531545,
        "Mean Anomaly(deg)": 126.88395794855812,
        "RAAN(deg)": 219.9491605324077,
        "Satellite Name": "Starlink Shell 1 972",
        "Satellite Number": 972,
        "Semi-Major Axis(m)": 6931778.249405717,
        "Time(s)": 980
    },
    {
        "Altitude(m)": 556823.3287342872,
        "Argument of Periapsis(deg)": 0.034509269471612446,
        "Eccentricity": 0.0,
        "Inclination(deg)": 53.0,
        "Latitude(deg)": 39.41410168902422,
        "Longitude(deg)": -102.17418008526651,
        "Mean Anomaly(deg)": 127.51078915211478,
        "RAAN(deg)": 219.9486417623302,
        "Satellite Name": "Starlink Shell 1 972",
        "Satellite Number": 972,
        "Semi-Major Axis(m)": 6931778.249405717,
        "Time(s)": 990
    }
]